[{"OBJECT_NAME":"STARLINK-34524","OBJECT_ID":"2025-129V","EPOCH":"2026-03-09T10:51:52.549920","MEAN_MOTION":14.9833795,"ECCENTRICITY":0.00030047,"INCLINATION":70.0013,"RA_OF_ASC_NODE":74.9812,"ARG_OF_PERICENTER":266.741,"MEAN_ANOMALY":93.3405,"EPHEMERIS_TYPE":0,"CLASSIFICATION_TYPE":"U","NORAD_CAT_ID":64431,"ELEMENT_SET_NO":999,"REV_AT_EPOCH":4119,"BSTAR":-0.00085865845,"MEAN_MOTION_DOT":-0.00010325,"MEAN_MOTION_DDOT":0},{"OBJECT_NAME":"COSMOS 2251 DEB","OBJECT_ID":"1993-036BRU","EPOCH":"2026-02-21T14:09:45.153216","MEAN_MOTION":14.99001579,"ECCENTRICITY":0.0017259,"INCLINATION":74.0061,"RA_OF_ASC_NODE":146.9269,"ARG_OF_PERICENTER":277.3195,"MEAN_ANOMALY":147.2685,"EPHEMERIS_TYPE":0,"CLASSIFICATION_TYPE":"U","NORAD_CAT_ID":38062,"ELEMENT_SET_NO":999,"REV_AT_EPOCH":64090,"BSTAR":0.0019091,"MEAN_MOTION_DOT":0.00023247,"MEAN_MOTION_DDOT":0}]
